NORAD_CAT_ID,OBJECT_NAME,OBJECT_TYPE,EPOCH,MEAN_MOTION,ECCENTRICITY,INCLINATION,RA_OF_ASC_NODE,ARG_OF_PERICENTER,MEAN_ANOMALY,BSTAR,MEAN_MOTION_DOT,MEAN_MOTION_DDOT,TLE_LINE0,TLE_LINE1,TLE_LINE2,SEMIMAJOR_AXIS,PERIOD,APOGEE,PERIGEE,DECAYED
53930.0,STARLINK-5010,PAYLOAD,2023-12-11 07:57:53,15.08842192,0.0001402,53.2178,22.1023,92.8044,267.3109,6.5859e-05,7.6e-06,0.0,0 STARLINK-5010,1 53930U 22119AW  23345.33186757  .00000760  00000-0  65859-4 0  9992,2 53930  53.2178  22.1023 0001402  92.8044 267.3109 15.08842192 68273,6917.874,95.437,540.709,538.769,0.0
53930.0,STARLINK-5010,PAYLOAD,2023-12-12 07:48:40,15.08835017,0.0001436,53.2182,17.6424,85.7995,274.3161,7.5813e-05,9.19e-06,0.0,0 STARLINK-5010,1 53930U 22119AW  23346.32547367  .00000919  00000-0  75813-4 0  9997,2 53930  53.2182  17.6424 0001436  85.7995 274.3161 15.08835017 68000,6917.896,95.438,540.754,538.767,0.0
53930.0,STARLINK-5010,PAYLOAD,2023-12-13 09:14:50,15.08843521,0.0001419,53.2181,12.8894,82.9416,277.1738,9.9127e-05,1.29e-05,0.0,0 STARLINK-5010,1 53930U 22119AW  23347.38531008  .00001290  00000-0  99127-4 0  9996,2 53930  53.2181  12.8894 0001419  82.9416 277.1738 15.08843521 68162,6917.87,95.437,540.716,538.753,0.0
53930.0,STARLINK-5010,PAYLOAD,2023-12-14 09:05:38,15.08840891,0.0001582,53.2187,8.4269,78.9169,281.2001,0.00010537,1.389e-05,0.0,0 STARLINK-5010,1 53930U 22119AW  23348.37891361  .00001389  00000-0  10537-3 0  9993,2 53930  53.2187   8.4269 0001582  78.9169 281.2001 15.08840891 68319,6917.878,95.437,540.837,538.648,0.0
53930.0,STARLINK-5010,PAYLOAD,2023-12-15 08:56:25,15.08843047,0.000157,53.2178,3.9728,81.9805,278.1365,5.6353e-05,6.09e-06,0.0,0 STARLINK-5010,1 53930U 22119AW  23349.37251404  .00000609  00000-0  56353-4 0  9993,2 53930  53.2178   3.9728 0001570  81.9805 278.1365 15.08843047 68883,6917.871,95.437,540.822,538.65,0.0
53930.0,STARLINK-5010,PAYLOAD,2023-12-16 07:11:49,15.08836994,0.0001565,53.2178,359.8098,86.4096,273.7076,3.4681e-05,2.64e-06,0.0,0 STARLINK-5010,1 53930U 22119AW  23350.29987985  .00000264  00000-0  34681-4 0  9993,2 53930  53.2178 359.8098 0001565  86.4096 273.7076 15.08836994 68605,6917.89,95.438,540.837,538.672,0.0
53930.0,STARLINK-5010,PAYLOAD,2023-12-17 07:02:36,15.08841969,0.0001553,53.2176,355.3496,87.5204,272.5966,7.7875e-05,9.52e-06,0.0,0 STARLINK-5010,1 53930U 22119AW  23351.29347672  .00000952  00000-0  77875-4 0  9993,2 53930  53.2176 355.3496 0001553  87.5204 272.5966 15.08841969 69172,6917.874,95.437,540.814,538.665,0.0
53930.0,STARLINK-5010,PAYLOAD,2023-12-18 03:42:36,15.0884483,0.0001518,53.2183,351.475,96.5156,263.6009,0.00012849,1.758e-05,0.0,0 STARLINK-5010,1 53930U 22119AW  23352.15459261  .00001758  00000-0  12849-3 0  9991,2 53930  53.2183 351.4750 0001518  96.5156 263.6009 15.08844830 68883,6917.866,95.437,540.781,538.68,0.0
53930.0,STARLINK-5010,PAYLOAD,2023-12-18 06:53:23,15.08845118,0.0001516,53.2183,350.8802,94.6892,265.4273,0.00012842,1.757e-05,0.0,0 STARLINK-5010,1 53930U 22119AW  23352.28707225  .00001757  00000-0  12842-3 0  9993,2 53930  53.2183 350.8802 0001516  94.6892 265.4273 15.08845118 69321,6917.865,95.437,540.778,538.681,0.0
53930.0,STARLINK-5010,PAYLOAD,2023-12-19 03:33:24,15.08836741,0.0001641,53.2172,347.0103,129.9508,230.1628,-3.6399e-05,-8.67e-06,0.0,0 STARLINK-5010,1 53930U 22119AW  23353.14820132 -.00000867  00000-0 -36399-4 0  9999,2 53930  53.2172 347.0103 0001641 129.9508 230.1628 15.08836741 69039,6917.89,95.438,540.891,538.62,0.0
53930.0,STARLINK-5010,PAYLOAD,2023-12-19 06:44:10,15.08837836,0.0001397,53.217,346.415,100.2222,259.8928,3.0229e-06,-2.4e-06,0.0,0 STARLINK-5010,1 53930U 22119AW  23353.28067943 -.00000240  00000-0  30229-5 0  9998,2 53930  53.2170 346.4150 0001397 100.2222 259.8928 15.08837836 69470,6917.887,95.438,540.718,538.786,0.0
53930.0,STARLINK-5010,PAYLOAD,2023-12-20 04:59:34,15.08836283,0.0001358,53.2166,342.2507,83.7283,276.3864,-9.0939e-08,-2.89e-06,0.0,0 STARLINK-5010,1 53930U 22119AW  23354.20804375 -.00000289  00000-0 -90939-7 0  9999,2 53930  53.2166 342.2507 0001358  83.7283 276.3864 15.08836283 69191,6917.892,95.438,540.696,538.817,0.0
53930.0,STARLINK-5010,PAYLOAD,2023-12-21 06:25:44,15.08851944,0.000137,53.2175,337.4957,78.1178,281.9968,0.00033229,5.006e-05,0.0,0 STARLINK-5010,1 53930U 22119AW  23355.26787823  .00005006  00000-0  33229-3 0  9999,2 53930  53.2175 337.4957 0001370  78.1178 281.9968 15.08851944 69357,6917.844,95.437,540.657,538.761,0.0
53930.0,STARLINK-5010,PAYLOAD,2023-12-22 03:05:46,15.088396,0.0001589,53.2176,333.6361,69.4034,290.7128,4.7918e-05,4.75e-06,0.0,0 STARLINK-5010,1 53930U 22119AW  23356.12900542  .00000475  00000-0  47918-4 0  9996,2 53930  53.2176 333.6361 0001589  69.4034 290.7128 15.08839600 69486,6917.882,95.438,540.846,538.647,0.0
53930.0,STARLINK-5010,PAYLOAD,2023-12-22 04:41:09,15.08840739,0.0001615,53.2178,333.3387,66.3712,293.745,7.1364e-05,8.48e-06,0.0,0 STARLINK-5010,1 53930U 22119AW  23356.19524538  .00000848  00000-0  71364-4 0  9996,2 53930  53.2178 333.3387 0001615  66.3712 293.7450 15.08840739 69916,6917.878,95.438,540.86,538.626,0.0
53930.0,STARLINK-5010,PAYLOAD,2023-12-23 02:56:33,15.08835857,0.0001865,53.2177,329.1725,61.3818,298.7362,3.4525e-05,2.61e-06,0.0,0 STARLINK-5010,1 53930U 22119AW  23357.12261059  .00000261  00000-0  34525-4 0  9993,2 53930  53.2177 329.1725 0001865  61.3818 298.7362 15.08835857 69634,6917.893,95.438,541.048,538.468,0.0
53930.0,STARLINK-5010,PAYLOAD,2023-12-23 06:07:19,15.08845202,0.0001613,53.2169,328.5863,75.5217,284.5954,9.4063e-05,1.21e-05,0.0,0 STARLINK-5010,1 53930U 22119AW  23357.25508675  .00001210  00000-0  94063-4 0  9993,2 53930  53.2169 328.5863 0001613  75.5217 284.5954 15.08845202 69659,6917.864,95.437,540.845,538.614,0.0
53930.0,STARLINK-5010,PAYLOAD,2023-12-24 04:22:43,15.08843348,0.0001752,53.2158,324.4221,63.3734,296.7438,0.0002586,3.83e-05,0.0,0 STARLINK-5010,1 53930U 22119AW  23358.18245223  .00003830  00000-0  25860-3 0  9991,2 53930  53.2158 324.4221 0001752  63.3734 296.7438 15.08843348 69799,6917.87,95.437,540.947,538.523,0.0
53930.0,STARLINK-5010,PAYLOAD,2023-12-24 21:51:57,15.0884681,0.0001381,53.2156,321.1487,104.1726,255.9419,0.00026654,3.957e-05,0.0,0 STARLINK-5010,1 53930U 22119AW  23358.91108771  .00003957  00000-0  26654-3 0  9990,2 53930  53.2156 321.1487 0001381 104.1726 255.9419 15.08846810 70322,6917.86,95.437,540.68,538.769,0.0
53930.0,STARLINK-5010,PAYLOAD,2023-12-25 04:13:30,15.08853911,0.0001527,53.2161,319.958,83.674,276.4426,0.00032201,4.842e-05,0.0,0 STARLINK-5010,1 53930U 22119AW  23359.17604564  .00004842  00000-0  32201-3 0  9999,2 53930  53.2161 319.9580 0001527  83.6740 276.4426 15.08853911 70366,6917.838,95.437,540.759,538.647,0.0
53930.0,STARLINK-5010,PAYLOAD,2023-12-25 21:42:44,15.08843128,0.0001368,53.2158,316.6862,104.1758,255.9386,6.3395e-05,7.21e-06,0.0,0 STARLINK-5010,1 53930U 22119AW  23359.90468735  .00000721  00000-0  63395-4 0  9999,2 53930  53.2158 316.6862 0001368 104.1758 255.9386 15.08843128 70478,6917.871,95.437,540.682,538.789,0.0
53930.0,STARLINK-5010,PAYLOAD,2023-12-26 04:04:17,15.08841919,0.0001504,53.2166,315.4954,105.9769,254.1389,2.6239e-05,1.3e-06,0.0,0 STARLINK-5010,1 53930U 22119AW  23360.16964742  .00000130  00000-0  26239-4 0  9998,2 53930  53.2166 315.4954 0001504 105.9769 254.1389 15.08841919 70097,6917.875,95.437,540.78,538.699,0.0
53930.0,STARLINK-5010,PAYLOAD,2023-12-26 07:15:03,15.0884285,0.000158,53.2172,314.8973,111.1081,249.008,4.4963e-05,4.28e-06,0.0,0 STARLINK-5010,1 53930U 22119AW  23360.30212643  .00000428  00000-0  44963-4 0  9994,2 53930  53.2172 314.8973 0001580 111.1081 249.0080 15.08842850 70533,6917.872,95.437,540.83,538.644,0.0
53930.0,STARLINK-5010,PAYLOAD,2023-12-27 07:05:51,15.08840499,0.0001737,53.2173,310.4354,119.509,240.6075,-2.5621e-05,-6.96e-06,0.0,0 STARLINK-5010,1 53930U 22119AW  23361.29572940 -.00000696  00000-0 -25621-4 0  9991,2 53930  53.2173 310.4354 0001737 119.5090 240.6075 15.08840499 70263,6917.879,95.438,540.945,538.542,0.0
53930.0,STARLINK-5010,PAYLOAD,2023-12-28 02:10:28,15.08843085,0.00017,53.2177,306.8669,116.7697,243.3469,0.00014855,2.077e-05,0.0,0 STARLINK-5010,1 53930U 22119AW  23362.09060900  .00002077  00000-0  14855-3 0  9997,2 53930  53.2177 306.8669 0001700 116.7697 243.3469 15.08843085 70808,6917.871,95.437,540.912,538.56,0.0
53930.0,STARLINK-5010,PAYLOAD,2023-12-29 03:36:39,15.08839537,0.000137,53.2166,302.1119,102.6744,257.4402,1.0856e-05,-1.15e-06,0.0,0 STARLINK-5010,1 53930U 22119AW  23363.15045266 -.00000115  00000-0  10856-4 0  9993,2 53930  53.2166 302.1119 0001370 102.6744 257.4402 15.08839537 70546,6917.882,95.438,540.695,538.799,0.0
53930.0,STARLINK-5010,PAYLOAD,2023-12-29 05:12:02,15.08842118,0.0001406,53.2173,301.8146,108.9918,251.1226,7.7355e-05,9.43e-06,0.0,0 STARLINK-5010,1 53930U 22119AW  23363.21669395  .00000943  00000-0  77355-4 0  9990,2 53930  53.2173 301.8146 0001406 108.9918 251.1226 15.08842118 70973,6917.874,95.437,540.712,538.766,0.0
53930.0,STARLINK-5010,PAYLOAD,2023-12-30 03:27:25,15.08844679,0.0001704,53.2185,297.6538,104.1339,255.9842,0.00014127,1.961e-05,0.0,0 STARLINK-5010,1 53930U 22119AW  23364.14405020  .00001961  00000-0  14127-3 0  9994,2 53930  53.2185 297.6538 0001704 104.1339 255.9842 15.08844679 71116,6917.866,95.437,540.91,538.552,0.0
53930.0,STARLINK-5010,PAYLOAD,2023-12-30 19:21:17,15.08828437,0.0001547,53.2185,294.6845,75.5124,284.604,0.0003165,4.751e-05,0.0,0 STARLINK-5010,1 53930U 22119AW  23364.80645442  .00004751  00000-0  31650-3 0  9991,2 53930  53.2185 294.6845 0001547  75.5124 284.6040 15.08828437 70798,6917.916,95.438,540.851,538.711,0.0
53930.0,STARLINK-5010,PAYLOAD,2023-12-31 19:12:05,15.08798171,0.0001937,53.2191,290.2213,88.9209,271.2005,0.00057256,8.826e-05,0.0,0 STARLINK-5010,1 53930U 22119AW  23365.80005920  .00008826  00000-0  57256-3 0  9990,2 53930  53.2191 290.2213 0001937  88.9209 271.2005 15.08798171 70942,6918.008,95.44,541.213,538.533,0.0
